ORBCOMM FM20            
1 25416U 98046D   24215.45937853  .00001386  00000+0  52609-3 0  9995
2 25416  44.9933 248.9609 0002147 274.9434  85.1168 14.35513701358473
ORBCOMM FM16            
1 25417U 98046E   24214.94022576  .00001847  00000+0  66991-3 0  9997
2 25417  44.9933 246.5183 0002020 170.6725 189.4161 14.36600140358308
ORBCOMM FM15            
1 25418U 98046F   24215.46980579  .00001913  00000+0  69626-3 0  9994
2 25418  44.9963 248.2774 0001997 183.9228 176.1604 14.36310759358550
ORBCOMM FM14            
1 25419U 98046G   24215.41392780  .00002125  00000+0  76510-3 0  9997
2 25419  44.9955 247.5285 0000936 223.5838 136.4935 14.36512549358558
ORBCOMM FM13            
1 25420U 98046H   24215.50387661  .00001696  00000+0  63000-3 0  9993
2 25420  44.9969 252.4711 0002357 136.2153 223.8882 14.35725882358538
ORBCOMM FM21            
1 25475U 98053A   24215.04234114  .00001897  00000+0  70033-3 0  9991
2 25475  45.0103 339.1018 0001180 200.6477 159.4323 14.35622099351680
ORBCOMM FM22            
1 25476U 98053B   24214.77859980  .00002140  00000+0  77483-3 0  9993
2 25476  45.0093 337.2710 0000732 101.5907 258.5023 14.36207734351310
ORBCOMM FM23            
1 25477U 98053C   24214.78941470  .00001823  00000+0  67456-3 0  9997
2 25477  45.0106 342.6922 0000586 136.3662 223.7232 14.35666239351462
